{
  "norad_id": 52002,
  "name": "STARLINK-3668",
  "history": [
    {
      "epoch": "2026-03-28T20:06:28.492128",
      "apogee_km": 540.819369216536,
      "perigee_km": 538.6264076319067,
      "latitude_deg": 21.28184789943428,
      "longitude_deg": -179.36834208015352,
      "semi_major_axis_km": 6917.859888424221,
      "eccentricity": 0.0001585,
      "inclination_deg": 53.2172,
      "raan_deg": 293.1996,
      "arg_perigee_deg": 89.7904,
      "mean_anomaly_deg": 270.327,
      "mean_motion_rev_day": 15.08846707
    }
  ]
}